<?xml version="1.0" encoding="UTF-8"?>
<osm version="0.6" generator="openstreetmap-cgimap 2.1.0 (3964063 spike-06.openstreetmap.org)" copyright="OpenStreetMap and contributors" attribution="http://www.openstreetmap.org/copyright" license="http://opendatacommons.org/licenses/odbl/1-0/">
 <way id="824625838" visible="true" version="6" changeset="172519660" timestamp="2025-09-27T10:37:08Z" user="Yui2" uid="21860375">
  <nd ref="8329831280"/>
  <nd ref="4393223481"/>
  <nd ref="5488619223"/>
  <nd ref="5488619224"/>
  <nd ref="5488619226"/>
  <nd ref="5488619227"/>
  <nd ref="4230839430"/>
  <nd ref="2329116011"/>
  <nd ref="4393216987"/>
  <nd ref="2329116008"/>
  <nd ref="4393216985"/>
  <tag k="bicycle" v="no"/>
  <tag k="bridge" v="yes"/>
  <tag k="foot" v="no"/>
  <tag k="highway" v="trunk"/>
  <tag k="horse" v="no"/>
  <tag k="layer" v="1"/>
  <tag k="maxspeed" v="80"/>
  <tag k="name" v="二环高架路"/>
  <tag k="oneway" v="yes"/>
  <tag k="surface" v="asphalt"/>
 </way>
 <way id="896111036" visible="true" version="2" changeset="136050189" timestamp="2023-05-13T11:56:04Z" user="北巷猫眠" uid="1915680">
  <nd ref="5488618118"/>
  <nd ref="8329831282"/>
  <nd ref="8329831280"/>
  <tag k="bicycle" v="no"/>
  <tag k="bridge" v="yes"/>
  <tag k="foot" v="no"/>
  <tag k="highway" v="trunk"/>
  <tag k="horse" v="no"/>
  <tag k="layer" v="2"/>
  <tag k="maxspeed" v="80"/>
  <tag k="name" v="二环高架路"/>
  <tag k="oneway" v="yes"/>
  <tag k="surface" v="asphalt"/>
 </way>
</osm>
